     3.04           N: GNSS NAV DATA    M: Mixed            RINEX VERSION / TYPE
CONVBIN demo5 b34g                      20250106 185316 UTC PGM / RUN BY / DATE 
log: sortie.rtcm3                                           COMMENT             
format: RTCM 3                                              COMMENT             
format: RTCM 3                                              COMMENT             
log: sortie.rtcm3                                           COMMENT             
                                                            END OF HEADER       
R15 2025 01 06 18 45 00  .724466517568D-04  .000000000000D+00  .153810000000D+06
     -.247028515625D+04  .311849403381D+01  .931322574615D-09  .000000000000D+00
     -.111226870117D+05  .155329704285D+00  .931322574615D-09  .000000000000D+00
      .228333457031D+05  .412663459778D+00 -.279396772385D-08  .000000000000D+00
R07 2025 01 06 18 45 00  .983746722341D-04  .909494701773D-12  .153810000000D+06
     -.339673046875D+04 -.120729637146D+01  .000000000000D+00  .000000000000D+00
      .145734355469D+05 -.255585670471D+01  .931322574615D-09  .500000000000D+01
      .207167656250D+05  .159810924530D+01 -.186264514923D-08  .000000000000D+00
R08 2025 01 06 18 45 00 -.627618283033D-05  .000000000000D+00  .153810000000D+06
      .737172314453D+04 -.354033470154D+00  .000000000000D+00  .000000000000D+00
      .229907612305D+05 -.109243202209D+01  .000000000000D+00  .600000000000D+01
      .835731396484D+04  .333853626251D+01  .000000000000D+00  .000000000000D+00
R17 2025 01 06 18 45 00  .155168585479D-03  .272848410532D-11  .153810000000D+06
      .146778295898D+05 -.325063705444D+00  .279396772385D-08  .000000000000D+00
     -.207934970703D+05  .110951423645D+00  .000000000000D+00  .400000000000D+01
      .199164257812D+04  .357579898834D+01  .000000000000D+00  .000000000000D+00
R22 2025 01 06 18 45 00 -.545755028725D-04 -.181898940355D-11  .153810000000D+06
     -.554036523438D+04 -.105479526520D+01 -.931322574615D-09  .000000000000D+00
      .200778984375D+05  .172196388245D+01  .000000000000D+00 -.300000000000D+01
      .147664687500D+05 -.274146842957D+01 -.931322574615D-09  .000000000000D+00
R06 2025 01 06 18 45 00 -.196238048375D-03 -.909494701773D-12  .153810000000D+06
     -.124609155273D+05 -.151662254333D+01 -.931322574615D-09  .000000000000D+00
     -.816291992188D+03 -.264317512512D+01  .931322574615D-09 -.400000000000D+01
      .222295942383D+05 -.948676109314D+00 -.279396772385D-08  .000000000000D+00
E25 2025 01 06 18 00 00  .130097032525D-04  .369482222595D-12  .000000000000D+00
      .125000000000D+03  .137593750000D+03  .341407078118D-08  .161153120171D+01
      .642053782940D-05  .194537104107D-03  .826641917229D-05  .544061350250D+04
      .151200000000D+06  .447034835815D-07  .229059460295D+01  .186264514923D-08
      .964207456917D+00  .163906250000D+03  .460196783306D+00 -.577131182687D-08
      .252153360342D-09  .517000000000D+03  .234800000000D+04  .000000000000D+00
      .312000000000D+01  .000000000000D+00  .232830643654D-09  .116415321827D-08
      .153837000000D+06  .000000000000D+00
E12 2025 01 06 18 30 00 -.137437321246D-02 -.170956582224D-10  .000000000000D+00
      .100000000000D+01 -.197500000000D+02  .244474469057D-08  .217987343892D+01
     -.105798244476D-05  .402324716561D-03  .979565083981D-05  .544061153984D+04
      .153000000000D+06  .111758708954D-07 -.189807044090D+01 -.111758708954D-07
      .996677551278D+00  .150843750000D+03 -.434809124482D+00 -.533343644475D-08
     -.202508435289D-09  .517000000000D+03  .234800000000D+04  .000000000000D+00
      .312000000000D+01  .000000000000D+00 -.139698386192D-07 -.135041773319D-07
      .153837000000D+06  .000000000000D+00
E24 2025 01 06 17 30 00 -.119737145724D-02 -.213304929275D-10  .000000000000D+00
      .122000000000D+03  .134156250000D+03  .336871174894D-08  .168698169173D+01
      .623054802418D-05  .776225002483D-03  .753067433834D-05  .544062596130D+04
      .149400000000D+06  .447034835815D-07  .229326988074D+01 -.372529029846D-08
      .962018643275D+00  .180437500000D+03  .940869848103D+00 -.578345518984D-08
      .228223792151D-09  .517000000000D+03  .234800000000D+04  .000000000000D+00
      .312000000000D+01  .000000000000D+00 -.698491930962D-08 -.721774995327D-08
      .153837000000D+06  .000000000000D+00
E36 2025 01 06 17 30 00 -.335378455929D-03 -.534328137292D-11  .000000000000D+00
      .122000000000D+03 -.592187500000D+02  .242867259253D-08  .755157150961D+00
     -.282377004623D-05  .384847051464D-03  .107418745756D-04  .544061240196D+04
      .149400000000D+06  .447034835815D-07 -.189871584818D+01 -.931322574615D-08
      .999767418589D+00  .123656250000D+03 -.100101411591D+01 -.539165315542D-08
     -.218223375594D-09  .517000000000D+03  .234800000000D+04  .000000000000D+00
      .312000000000D+01  .000000000000D+00  .162981450558D-08  .279396772385D-08
      .153837000000D+06  .000000000000D+00
E10 2025 01 06 18 30 00 -.681451230776D-03 -.247268872045D-11  .000000000000D+00
      .100000000000D+01 -.222500000000D+02  .239831418513D-08 -.300917159267D+01
     -.110268592834D-05  .128200394101D-03  .971741974354D-05  .544060750198D+04
      .153000000000D+06 -.130385160446D-07 -.190062648063D+01 -.558793544769D-08
      .999606205016D+00  .152156250000D+03 -.189365269163D+01 -.531450708484D-08
     -.191079387795D-09  .517000000000D+03  .234800000000D+04  .000000000000D+00
      .312000000000D+01  .000000000000D+00 -.279396772385D-08 -.139698386192D-08
      .153837000000D+06  .000000000000D+00
E02 2025 01 06 18 30 00  .188038684428D-03  .292743607133D-11  .000000000000D+00
      .100000000000D+01  .130875000000D+03  .334871091582D-08  .781307370462D+00
      .615417957306D-05  .500184250996D-03  .849366188049D-05  .544062495804D+04
      .153000000000D+06  .521540641785D-07  .229374530132D+01  .558793544769D-08
      .964600914586D+00  .158968750000D+03  .724460606315D+00 -.576274004125D-08
      .256796410887D-09  .517000000000D+03  .234800000000D+04  .000000000000D+00
      .312000000000D+01  .000000000000D+00 -.465661287308D-08 -.488944351673D-08
      .153837000000D+06  .000000000000D+00
E11 2025 01 06 18 30 00 -.170712999534D-03 -.223536744670D-09 -.520417042793D-17
      .100000000000D+01 -.341875000000D+02  .239724271192D-08  .896677429208D+00
     -.161863863468D-05  .272810575552D-03  .102706253529D-04  .544061236382D+04
      .153000000000D+06  .000000000000D+00 -.189807500813D+01  .298023223877D-07
      .996664978960D+00  .135937500000D+03  .574875412840D-01 -.536415200989D-08
     -.188936441390D-09  .517000000000D+03  .234800000000D+04  .000000000000D+00
      .312000000000D+01  .000000000000D+00 -.169966369867D-07 -.174622982740D-07
      .153837000000D+06  .000000000000D+00
C30 2025 01 06 18 00 00  .727896112949D-04  .979927250455D-11  .000000000000D+00
      .100000000000D+01 -.390156250000D+02  .411588572888D-08  .633762390336D+00
     -.190734863281D-05  .494880485348D-03  .595254823565D-05  .528265317154D+04
      .151200000000D+06  .409781932831D-07 -.255727511250D+01  .372529029846D-07
      .954090608903D+00  .234671875000D+03  .368041676470D+00 -.718244203468D-08
     -.442875590403D-09  .000000000000D+00  .992000000000D+03  .000000000000D+00
      .200000000000D+01  .000000000000D+00 -.950000000000D-08 -.950000000000D-08
      .153828000000D+06  .100000000000D+01
C36 2025 01 06 18 00 00  .248358934186D-03  .523758814097D-11  .000000000000D+00
      .100000000000D+01  .462031250000D+02  .414195824347D-08  .306321343962D+01
      .235438346863D-05  .430722371675D-03  .122445635498D-04  .528265726280D+04
      .151200000000D+06  .325962901115D-08  .166394163607D+01  .111758708954D-07
      .945433055322D+00  .104312500000D+03 -.790398750938D+00 -.686885754406D-08
      .678599694973D-10  .000000000000D+00  .992000000000D+03  .000000000000D+00
      .200000000000D+01  .000000000000D+00 -.206000000000D-07 -.206000000000D-07
      .153828000000D+06  .100000000000D+01
C27 2025 01 06 18 00 00  .419923104346D-03  .512034858957D-11  .000000000000D+00
      .100000000000D+01 -.361718750000D+02  .396909390012D-08  .531215307410D+00
     -.183377414942D-05  .506962998770D-03  .666733831167D-05  .528262124634D+04
      .151200000000D+06 -.465661287308D-08 -.251740747297D+01  .619329512119D-07
      .956262337125D+00  .223593750000D+03  .119470108734D+01 -.708386650005D-08
     -.420017495415D-09  .000000000000D+00  .992000000000D+03  .000000000000D+00
      .200000000000D+01  .000000000000D+00 -.430000000000D-08 -.430000000000D-08
      .153828000000D+06  .100000000000D+01
C29 2025 01 06 18 00 00  .385502353311D-03  .510613773486D-11  .000000000000D+00
      .100000000000D+01 -.452968750000D+02  .413981529707D-08 -.362060970390D+00
     -.232271850109D-05  .863544410095D-04  .549573451281D-05  .528261644173D+04
      .151200000000D+06  .256113708019D-07 -.255775393436D+01  .214204192162D-07
      .954136698138D+00  .243359375000D+03  .539086251403D+00 -.720065707913D-08
     -.458947688442D-09  .000000000000D+00  .992000000000D+03  .000000000000D+00
      .200000000000D+01  .000000000000D+00  .300000000000D-09  .300000000000D-09
      .153828000000D+06  .100000000000D+01
C32 2025 01 06 18 00 00 -.869602197781D-03 -.153086432420D-10  .000000000000D+00
      .100000000000D+01 -.154375000000D+02  .366658129926D-08  .617173260658D+00
     -.636093318462D-06  .498365843669D-03  .562937930226D-05  .528262891388D+04
      .151200000000D+06  .121071934700D-07 -.431299995090D+00 -.251457095146D-07
      .980465011823D+00  .254671875000D+03 -.101048832303D+01 -.691493089177D-08
      .332871008271D-09  .000000000000D+00  .992000000000D+03  .000000000000D+00
      .200000000000D+01  .000000000000D+00 -.690000000000D-08 -.690000000000D-08
      .153828000000D+06  .100000000000D+01
